NORAD_CAT_ID,OBJECT_NAME,OBJECT_TYPE,EPOCH,MEAN_MOTION,ECCENTRICITY,INCLINATION,RA_OF_ASC_NODE,ARG_OF_PERICENTER,MEAN_ANOMALY,BSTAR,MEAN_MOTION_DOT,MEAN_MOTION_DDOT,TLE_LINE0,TLE_LINE1,TLE_LINE2,SEMIMAJOR_AXIS,PERIOD,APOGEE,PERIGEE,DECAYED
52331.0,STARLINK-3889,PAYLOAD,2022-12-15 17:06:53,15.08843448,0.0002488,53.2163,106.2449,32.7926,327.322,0.00017086,2.432e-05,0.0,0 STARLINK-3889,1 52331U 22045A   22349.71312111  .00002432  00000-0  17086-3 0  9990,2 52331  53.2163 106.2449 0002488  32.7926 327.3220 15.08843448 37502,6917.87,95.437,541.456,538.014,0.0
52331.0,STARLINK-3889,PAYLOAD,2022-12-16 01:03:48,15.08846527,0.0002541,53.2175,104.7582,36.355,323.7614,0.00031454,4.722e-05,0.0,0 STARLINK-3889,1 52331U 22045A   22350.04431425  .00004722  00000-0  31454-3 0  9997,2 52331  53.2175 104.7582 0002541  36.3550 323.7614 15.08846527 37552,6917.86,95.437,541.4830000000002,537.9680000000002,0.0
52331.0,STARLINK-3889,PAYLOAD,2022-12-16 13:46:54,15.08847232,0.000296,53.2168,102.3821,21.2044,338.9071,0.0001786999999999,2.557e-05,0.0,0 STARLINK-3889,1 52331U 22045A   22350.57423752  .00002557  00000-0  17870-3 0  9999,2 52331  53.2168 102.3821 0002960  21.2044 338.9071 15.08847232 37638,6917.858,95.437,541.771,537.6759999999998,0.0
52331.0,STARLINK-3889,PAYLOAD,2022-12-16 16:57:40,15.08841007,0.0002572,53.2168,101.7849,36.334,323.7826,4.1969e-05,3.8e-06,0.0,0 STARLINK-3889,1 52331U 22045A   22350.70672008  .00000380  00000-0  41969-4 0  9993,2 52331  53.2168 101.7849 0002572  36.3340 323.7826 15.08841007 37652,6917.877,95.437,541.5219999999998,537.9630000000002,0.0
52331.0,STARLINK-3889,PAYLOAD,2022-12-17 13:37:41,15.08845814,0.0002574,53.2159,97.9188,38.3581,321.7594,8.5772e-05,1.077e-05,0.0,0 STARLINK-3889,1 52331U 22045A   22351.56783579  .00001077  00000-0  85772-4 0  9998,2 52331  53.2159  97.9188 0002574  38.3581 321.7594 15.08845814 37789,6917.863,95.437,541.508,537.947,0.0
52331.0,STARLINK-3889,PAYLOAD,2022-12-17 18:23:50,15.08838311,0.0002572,53.2156,97.0263,37.3115,322.8055,-4.2035e-05,-9.57e-06,0.0,0 STARLINK-3889,1 52331U 22045A   22351.76655868 -.00000957  00000-0 -42035-4 0  9992,2 52331  53.2156  97.0263 0002572  37.3115 322.8055 15.08838311 37813,6917.886,95.438,541.53,537.971,0.0
52331.0,STARLINK-3889,PAYLOAD,2022-12-18 00:45:23,15.08832832,0.0002656,53.2152,95.8384,36.1023,324.0148,-0.0001196,-2.191e-05,0.0,0 STARLINK-3889,1 52331U 22045A   22352.03152202 -.00002191  00000-0 -11960-3 0  9991,2 52331  53.2152  95.8384 0002656  36.1023 324.0148 15.08832832 37850,6917.901999999999,95.438,541.605,537.93,0.0
52331.0,STARLINK-3889,PAYLOAD,2022-12-18 13:28:28,15.08841048,0.0002651,53.2177,93.4604,31.431,328.684,5.4675e-05,5.82e-06,0.0,0 STARLINK-3889,1 52331U 22045A   22352.56144028  .00000582  00000-0  54675-4 0  9997,2 52331  53.2177  93.4604 0002651  31.4310 328.6840 15.08841048 37935,6917.877,95.437,541.576,537.908,0.0
52331.0,STARLINK-3889,PAYLOAD,2022-12-18 18:14:38,15.08836245,0.0002599,53.2171,92.5677,30.4705,329.6438,-8.2178e-06,-4.19e-06,0.0,0 STARLINK-3889,1 52331U 22045A   22352.76016328 -.00000419  00000-0 -82178-5 0  9991,2 52331  53.2171  92.5677 0002599  30.4705 329.6438 15.08836245 37967,6917.892,95.438,541.555,537.9590000000002,0.0
52331.0,STARLINK-3889,PAYLOAD,2022-12-19 18:05:24,15.0884996,0.000267,53.2169,88.1066,32.032,328.0834,0.0003428,5.173e-05,0.0,0 STARLINK-3889,1 52331U 22045A   22353.75376073  .00005173  00000-0  34280-3 0  9996,2 52331  53.2169  88.1066 0002670  32.0320 328.0834 15.08849960 38117,6917.85,95.437,541.562,537.868,0.0
52331.0,STARLINK-3889,PAYLOAD,2022-12-20 13:10:01,15.08876147,0.00027,53.2172,84.5381,30.5162,329.5987,0.00077813,0.0001213,0.0,0 STARLINK-3889,1 52331U 22045A   22354.54862625  .00012130  00000-0  77813-3 0  9997,2 52331  53.2172  84.5381 0002700  30.5162 329.5987 15.08876147 38237,6917.77,95.435,541.503,537.7669999999998,0.0
52331.0,STARLINK-3889,PAYLOAD,2022-12-21 13:00:48,15.08831962,0.00026,53.2175,80.0783,24.9348,335.1769,-0.00022017,-3.79e-05,0.0,0 STARLINK-3889,1 52331U 22045A   22355.54223010 -.00003790  00000-0 -22017-3 0  9997,2 52331  53.2175  80.0783 0002600  24.9348 335.1769 15.08831962 38382,6917.905,95.438,541.569,537.971,0.0
52331.0,STARLINK-3889,PAYLOAD,2022-12-22 09:40:50,15.08830199,0.0002634999999999,53.2173,76.2131,27.0857,333.0272,0.00031102,4.664e-05,0.0,0 STARLINK-3889,1 52331U 22045A   22356.40335864  .00004664  00000-0  31102-3 0  9998,2 52331  53.2173  76.2131 0002635  27.0857 333.0272 15.08830199 38513,6917.91,95.438,541.5980000000002,537.952,0.0
52331.0,STARLINK-3889,PAYLOAD,2022-12-22 12:51:36,15.08830061,0.0002634999999999,53.2174,75.6179,26.8029,333.3099,0.00025835,3.825e-05,0.0,0 STARLINK-3889,1 52331U 22045A   22356.53583959  .00003825  00000-0  25835-3 0  9996,2 52331  53.2174  75.6179 0002635  26.8029 333.3099 15.08830061 38537,6917.911,95.438,541.599,537.953,0.0
52331.0,STARLINK-3889,PAYLOAD,2022-12-23 09:31:38,15.08826488,0.0002722,53.2172,71.7526,28.7037,331.4104,0.00010702,1.415e-05,0.0,0 STARLINK-3889,1 52331U 22045A   22357.39696928  .00001415  00000-0  10702-3 0  9992,2 52331  53.2172  71.7526 0002722  28.7037 331.4104 15.08826488 38663,6917.922,95.438,541.67,537.904,0.0
52331.0,STARLINK-3889,PAYLOAD,2022-12-23 14:17:47,15.088283,0.0002787,53.2171,70.8604,27.9715,332.1427,0.00014877,2.079e-05,0.0,0 STARLINK-3889,1 52331U 22045A   22357.59569106  .00002079  00000-0  14877-3 0  9995,2 52331  53.2171  70.8604 0002787  27.9715 332.1427 15.08828300 38698,6917.916,95.438,541.7090000000002,537.8530000000002,0.0
52331.0,STARLINK-3889,PAYLOAD,2022-12-23 17:28:34,15.08828451,0.0003073,53.2176,70.267,27.7234,332.3922,0.00016014,2.26e-05,0.0,0 STARLINK-3889,1 52331U 22045A   22357.72817378  .00002260  00000-0  16014-3 0  9994,2 52331  53.2176  70.2670 0003073  27.7234 332.3922 15.08828451 38715,6917.916,95.438,541.9069999999998,537.655,0.0
52331.0,STARLINK-3889,PAYLOAD,2022-12-24 04:36:16,15.088305800000002,0.0002707,53.2182,68.184,27.2941,332.8193,0.00013873,1.92e-05,0.0,0 STARLINK-3889,1 52331U 22045A   22358.19185493  .00001920  00000-0  13873-3 0  9994,2 52331  53.2182  68.1840 0002707  27.2941 332.8193 15.08830580 38788,6917.909000000002,95.438,541.6469999999998,537.9019999999998,0.0
52331.0,STARLINK-3889,PAYLOAD,2022-12-24 17:19:21,15.088419,0.0002675,53.2168,65.8057,28.0541,332.0594,0.00035103,5.303e-05,0.0,0 STARLINK-3889,1 52331U 22045A   22358.72177310  .00005303  00000-0  35103-3 0  9991,2 52331  53.2168  65.8057 0002675  28.0541 332.0594 15.08841900 38869,6917.875,95.437,541.59,537.889,0.0
52331.0,STARLINK-3889,PAYLOAD,2022-12-25 10:48:36,15.08836622,0.0002937,53.2176,62.5358,25.0139,335.0995,7.8785e-05,9.65e-06,0.0,0 STARLINK-3889,1 52331U 22045A   22359.45041685  .00000965  00000-0  78785-4 0  9990,2 52331  53.2176  62.5358 0002937  25.0139 335.0995 15.08836622 38972,6917.891,95.438,541.7869999999998,537.724,0.0
52331.0,STARLINK-3889,PAYLOAD,2022-12-25 13:59:22,15.08839139,0.0002826,53.217,61.9396,27.1212,332.9927,0.00012659,1.727e-05,0.0,0 STARLINK-3889,1 52331U 22045A   22359.58289612  .00001727  00000-0  12659-3 0  9992,2 52331  53.2170  61.9396 0002826  27.1212 332.9927 15.08839139 38992,6917.8830000000025,95.438,541.703,537.793,0.0
52331.0,STARLINK-3889,PAYLOAD,2022-12-25 15:34:45,15.088404,0.000283,53.2171,61.6425,26.7657,333.3481,0.00014596,2.035e-05,0.0,0 STARLINK-3889,1 52331U 22045A   22359.64913567  .00002035  00000-0  14596-3 0  9997,2 52331  53.2171  61.6425 0002830  26.7657 333.3481 15.08840400 39002,6917.879,95.438,541.702,537.786,0.0
52331.0,STARLINK-3889,PAYLOAD,2022-12-26 12:14:46,15.08842185,0.0002881,53.218,57.7774,28.7328,331.3823,8.732399999999999e-05,1.102e-05,0.0,0 STARLINK-3889,1 52331U 22045A   22360.51025595  .00001102  00000-0  87324-4 0  9994,2 52331  53.2180  57.7774 0002881  28.7328 331.3823 15.08842185 39132,6917.874,95.437,541.732,537.746,0.0
52331.0,STARLINK-3889,PAYLOAD,2022-12-26 15:25:32,15.08843803,0.0002916,53.2185,57.1831,25.8954,334.2183,6.1004e-05,6.83e-06,0.0,0 STARLINK-3889,1 52331U 22045A   22360.64273527  .00000683  00000-0  61004-4 0  9998,2 52331  53.2185  57.1831 0002916  25.8954 334.2183 15.08843803 39158,6917.869000000002,95.437,541.751,537.717,0.0
52331.0,STARLINK-3889,PAYLOAD,2022-12-27 13:40:55,15.08857189,0.0002933,53.2172,53.0186,27.2632,332.8514,0.00037713,5.722e-05,0.0,0 STARLINK-3889,1 52331U 22045A   22361.57008604  .00005722  00000-0  37713-3 0  9991,2 52331  53.2172  53.0186 0002933  27.2632 332.8514 15.08857189 39299,6917.828,95.436,541.722,537.664,0.0
52331.0,STARLINK-3889,PAYLOAD,2022-12-28 02:24:00,15.08859726,0.000295,53.2172,50.6396,28.4927,331.6226,0.0002971,4.446e-05,0.0,0 STARLINK-3889,1 52331U 22045A   22362.10000047  .00004446  00000-0  29710-3 0  9994,2 52331  53.2172  50.6396 0002950  28.4927 331.6226 15.08859726 39379,6917.82,95.436,541.726,537.644,0.0
52331.0,STARLINK-3889,PAYLOAD,2022-12-29 03:50:11,15.08829738,0.0002676,53.2175,45.8817,27.4799,332.6334,-0.00022976,-3.942e-05,0.0,0 STARLINK-3889,1 52331U 22045A   22363.15985151 -.00003942  00000-0 -22976-3 0  9997,2 52331  53.2175  45.8817 0002676  27.4799 332.6334 15.08829738 39536,6917.9119999999975,95.438,541.628,537.9259999999998,0.0
52331.0,STARLINK-3889,PAYLOAD,2022-12-29 11:47:07,15.08817632,0.000286,53.2175,44.3948,22.1815,337.93,-0.00030651,-5.161e-05,0.0,0 STARLINK-3889,1 52331U 22045A   22363.49106073 -.00005161  00000-0 -30651-3 0  9996,2 52331  53.2175  44.3948 0002860  22.1815 337.9300 15.08817632 39587,6917.949000000001,95.439,541.7919999999998,537.835,0.0
52331.0,STARLINK-3889,PAYLOAD,2022-12-30 03:40:59,15.08830969,0.0003138,53.2167,41.4205,17.8835,342.2267,-4.342799999999999e-06,-3.58e-06,0.0,0 STARLINK-3889,1 52331U 22045A   22364.15346512 -.00000358  00000-0 -43428-5 0  9995,2 52331  53.2167  41.4205 0003138  17.8835 342.2267 15.08830969 39684,6917.908,95.438,541.944,537.602,0.0
